[{"OBJECT_NAME":"STARLINK-32485","OBJECT_ID":"2024-224E","EPOCH":"2026-03-09T22:53:03.221664","MEAN_MOTION":15.27573383,"ECCENTRICITY":9.87e-5,"INCLINATION":42.9999,"RA_OF_ASC_NODE":159.7967,"ARG_OF_PERICENTER":285.9967,"MEAN_ANOMALY":74.0775,"EPHEMERIS_TYPE":0,"CLASSIFICATION_TYPE":"U","NORAD_CAT_ID":62143,"ELEMENT_SET_NO":999,"REV_AT_EPOCH":7205,"BSTAR":0.000941515,"MEAN_MOTION_DOT":0.00025731,"MEAN_MOTION_DDOT":0},{"OBJECT_NAME":"COSMOS 2588","OBJECT_ID":"2025-109A","EPOCH":"2026-03-09T19:28:59.107008","MEAN_MOTION":15.29122656,"ECCENTRICITY":0.0005019,"INCLINATION":72.9704,"RA_OF_ASC_NODE":73.5401,"ARG_OF_PERICENTER":308.678,"MEAN_ANOMALY":51.3966,"EPHEMERIS_TYPE":0,"CLASSIFICATION_TYPE":"U","NORAD_CAT_ID":64095,"ELEMENT_SET_NO":999,"REV_AT_EPOCH":4442,"BSTAR":0.00032611,"MEAN_MOTION_DOT":9.169e-5,"MEAN_MOTION_DDOT":0}]
